NORAD_CAT_ID,OBJECT_NAME,OBJECT_TYPE,EPOCH,MEAN_MOTION,ECCENTRICITY,INCLINATION,RA_OF_ASC_NODE,ARG_OF_PERICENTER,MEAN_ANOMALY,BSTAR,MEAN_MOTION_DOT,MEAN_MOTION_DDOT,TLE_LINE0,TLE_LINE1,TLE_LINE2,SEMIMAJOR_AXIS,PERIOD,APOGEE,PERIGEE,DECAYED
51768.0,STARLINK-3622,PAYLOAD,2023-04-01 07:59:28,15.08836573,0.0001324,53.2144,117.6027,83.0635,277.0508,0.00010188,1.334e-05,0.0,0 STARLINK-3622,1 51768U 22017A   23091.33296925  .00001334  00000-0  10188-3 0  9995,2 51768  53.2144 117.6027 0001324  83.0635 277.0508 15.08836573 62011,6917.891,95.438,540.672,538.84,0.0
51768.0,STARLINK-3622,PAYLOAD,2023-04-01 19:07:10,15.08842644,0.0001434,53.2151,115.5224,78.711,281.4044,0.00019163,2.763e-05,0.0,0 STARLINK-3622,1 51768U 22017A   23091.79664849  .00002763  00000-0  19163-3 0  9998,2 51768  53.2151 115.5224 0001434  78.7110 281.4044 15.08842644 62072,6917.872,95.437,540.729,538.745,0.0
51768.0,STARLINK-3622,PAYLOAD,2023-04-02 11:01:01,15.08851918,0.0001442,53.2143,112.5481,79.0798,281.0356,0.00049119,7.54e-05,0.0,0 STARLINK-3622,1 51768U 22017A   23092.45904642  .00007540  00000-0  49119-3 0  9992,2 51768  53.2143 112.5481 0001442  79.0798 281.0356 15.08851918 62188,6917.844,95.437,540.707,538.711,0.0
51768.0,STARLINK-3622,PAYLOAD,2023-04-03 06:05:39,15.08847098,0.0001402,53.2155,108.9808,85.8129,274.3023,0.00028681,4.28e-05,0.0,0 STARLINK-3622,1 51768U 22017A   23093.25392842  .00004280  00000-0  28681-3 0  9993,2 51768  53.2155 108.9808 0001402  85.8129 274.3023 15.08847098 62306,6917.859,95.437,540.694,538.754,0.0
51768.0,STARLINK-3622,PAYLOAD,2023-04-03 07:41:02,15.08845602,0.0001232,53.2141,108.6811,87.1332,272.9801,0.00027216,4.047e-05,0.0,0 STARLINK-3622,1 51768U 22017A   23093.32016777  .00004047  00000-0  27216-3 0  9995,2 51768  53.2141 108.6811 0001232  87.1332 272.9801 15.08845602 62301,6917.863,95.437,540.581,538.876,0.0
51768.0,STARLINK-3622,PAYLOAD,2023-04-04 05:56:26,15.08847553,0.0001391,53.2144,104.5157,106.2964,253.8181,0.00018356,2.635e-05,0.0,0 STARLINK-3622,1 51768U 22017A   23094.24752510  .00002635  00000-0  18356-3 0  9995,2 51768  53.2144 104.5157 0001391 106.2964 253.8181 15.08847553 62454,6917.857,95.437,540.685,538.76,0.0
51768.0,STARLINK-3622,PAYLOAD,2023-04-05 05:47:13,15.08836608,0.0001383,53.2154,100.0581,102.7796,257.335,3.5699e-05,2.8e-06,0.0,0 STARLINK-3622,1 51768U 22017A   23095.24113070  .00000280  00000-0  35699-4 0  9992,2 51768  53.2154 100.0581 0001383 102.7796 257.3350 15.08836608 62605,6917.891,95.438,540.713,538.799,0.0
51768.0,STARLINK-3622,PAYLOAD,2023-04-05 10:33:22,15.08839274,0.0001285,53.215,99.1664,98.3154,261.7984,5.9167e-05,6.54e-06,0.0,0 STARLINK-3622,1 51768U 22017A   23095.43984939  .00000654  00000-0  59167-4 0  9994,2 51768  53.2150  99.1664 0001285  98.3154 261.7984 15.08839274 62626,6917.883,95.438,540.637,538.859,0.0
51768.0,STARLINK-3622,PAYLOAD,2023-04-05 16:54:55,15.08837109,0.0001235,53.2143,97.9767,98.7397,261.3735,2.499e-05,1.1e-06,0.0,0 STARLINK-3622,1 51768U 22017A   23095.70481057  .00000110  00000-0  24990-4 0  9990,2 51768  53.2143  97.9767 0001235  98.7397 261.3735 15.08837109 62665,6917.889,95.438,540.609,538.9,0.0
51768.0,STARLINK-3622,PAYLOAD,2023-04-06 08:48:47,15.08839245,0.0001264,53.2156,95.0034,101.5086,258.6048,6.6223e-05,7.66e-06,0.0,0 STARLINK-3622,1 51768U 22017A   23096.36721183  .00000766  00000-0  66223-4 0  9992,2 51768  53.2156  95.0034 0001264 101.5086 258.6048 15.08839245 62776,6917.883,95.438,540.622,538.873,0.0
51768.0,STARLINK-3622,PAYLOAD,2023-04-06 16:45:42,15.08836864,0.0001226,53.2158,93.5164,98.416,261.6971,9.2071e-05,1.178e-05,0.0,0 STARLINK-3622,1 51768U 22017A   23096.69841335  .00001178  00000-0  92071-4 0  9998,2 51768  53.2158  93.5164 0001226  98.4160 261.6971 15.08836864 62818,6917.89,95.438,540.603,538.907,0.0
51768.0,STARLINK-3622,PAYLOAD,2023-04-07 11:50:20,15.08837789,0.000124,53.216,89.948,97.3281,262.7852,6.7182e-05,7.81e-06,0.0,0 STARLINK-3622,1 51768U 22017A   23097.49329575  .00000781  00000-0  67182-4 0  9998,2 51768  53.2160  89.9480 0001240  97.3281 262.7852 15.08837789 62940,6917.887,95.438,540.61,538.894,0.0
51768.0,STARLINK-3622,PAYLOAD,2023-04-08 05:19:35,15.08826394,0.0001119,53.2148,86.6755,89.057,271.0551,0.00023836,3.506e-05,0.0,0 STARLINK-3622,1 51768U 22017A   23098.22194166  .00003506  00000-0  23836-3 0  9991,2 51768  53.2148  86.6755 0001119  89.0570 271.0551 15.08826394 63051,6917.922,95.438,540.561,539.013,0.0
51768.0,STARLINK-3622,PAYLOAD,2023-04-08 11:41:07,15.08843438,0.0001203,53.2156,85.4861,84.5406,275.5724,6.698e-05,7.78e-06,0.0,0 STARLINK-3622,1 51768U 22017A   23098.48689344  .00000778  00000-0  66980-4 0  9992,2 51768  53.2156  85.4861 0001203  84.5406 275.5724 15.08843438 63090,6917.87,95.437,540.567,538.903,0.0
51768.0,STARLINK-3622,PAYLOAD,2023-04-09 08:21:08,15.08846462,0.000121,53.2167,81.6197,88.5485,271.5646,9.6612e-05,1.25e-05,0.0,0 STARLINK-3622,1 51768U 22017A   23099.34801013  .00001250  00000-0  96612-4 0  9998,2 51768  53.2167  81.6197 0001210  88.5485 271.5646 15.08846462 63214,6917.861,95.437,540.563,538.889,0.0
51768.0,STARLINK-3622,PAYLOAD,2023-04-09 16:18:04,15.08837382,0.0001464,53.2178,80.1337,82.2499,277.8659,2.6006e-05,1.26e-06,0.0,0 STARLINK-3622,1 51768U 22017A   23099.67921844  .00000126  00000-0  26006-4 0  9990,2 51768  53.2178  80.1337 0001464  82.2499 277.8659 15.08837382 63273,6917.888,95.438,540.766,538.741,0.0
51768.0,STARLINK-3622,PAYLOAD,2023-04-10 09:47:18,15.08844845,0.0001237,53.2173,76.8627,85.7616,274.3518,4.9734e-05,5.04e-06,0.0,0 STARLINK-3622,1 51768U 22017A   23100.40785391  .00000504  00000-0  49734-4 0  9992,2 51768  53.2173  76.8627 0001237  85.7616 274.3518 15.08844845 63378,6917.866,95.437,540.586,538.875,0.0
51768.0,STARLINK-3622,PAYLOAD,2023-04-10 22:30:23,15.08840362,0.0001055,53.2171,74.4843,84.5739,275.5373,7.3576e-05,8.83e-06,0.0,0 STARLINK-3622,1 51768U 22017A   23100.93777463  .00000883  00000-0  73576-4 0  9992,2 51768  53.2171  74.4843 0001055  84.5739 275.5373 15.08840362 63463,6917.879,95.438,540.474,539.014,0.0
51768.0,STARLINK-3622,PAYLOAD,2023-04-11 04:51:55,15.08848879,0.0001099,53.2174,73.2943,90.8405,269.2713,0.00011612,1.561e-05,0.0,0 STARLINK-3622,1 51768U 22017A   23101.20272754  .00001561  00000-0  11612-3 0  9992,2 51768  53.2174  73.2943 0001099  90.8405 269.2713 15.08848879 63506,6917.853,95.437,540.479,538.958,0.0
51768.0,STARLINK-3622,PAYLOAD,2023-04-11 09:38:04,15.08854221,0.0001244,53.2174,72.402,91.3767,268.7368,0.00010097,1.32e-05,0.0,0 STARLINK-3622,1 51768U 22017A   23101.40144349  .00001320  00000-0  10097-3 0  9991,2 51768  53.2174  72.4020 0001244  91.3767 268.7368 15.08854221 63522,6917.837,95.437,540.563,538.841,0.0
51768.0,STARLINK-3622,PAYLOAD,2023-04-12 06:18:06,15.08840077,0.0001248,53.217,68.5377,93.8553,266.2582,5.2763e-05,5.52e-06,0.0,0 STARLINK-3622,1 51768U 22017A   23102.26257752  .00000552  00000-0  52763-4 0  9992,2 51768  53.2170  68.5377 0001248  93.8553 266.2582 15.08840077 63652,6917.88,95.438,540.609,538.882,0.0
51768.0,STARLINK-3622,PAYLOAD,2023-04-13 07:44:17,15.0884168,0.0001218,53.2173,63.7797,100.0632,260.0498,4.3165e-05,3.99e-06,0.0,0 STARLINK-3622,1 51768U 22017A   23103.32241920  .00000399  00000-0  43165-4 0  9995,2 51768  53.2173  63.7797 0001218 100.0632 260.0498 15.08841680 63811,6917.875,95.437,540.583,538.898,0.0
51768.0,STARLINK-3622,PAYLOAD,2023-04-13 14:05:49,15.08843742,0.00012,53.2178,62.5899,94.9584,265.1545,-9.8574e-06,-4.45e-06,0.0,0 STARLINK-3622,1 51768U 22017A   23103.58737805 -.00000445  00000-0 -98574-5 0  9994,2 51768  53.2178  62.5899 0001200  94.9584 265.1545 15.08843742 63869,6917.869,95.437,540.564,538.904,0.0
51768.0,STARLINK-3622,PAYLOAD,2023-04-14 05:59:41,15.08838743,0.0001154,53.2167,59.6163,94.7442,265.3682,7.189e-05,8.56e-06,0.0,0 STARLINK-3622,1 51768U 22017A   23104.24978140  .00000856  00000-0  71890-4 0  9992,2 51768  53.2167  59.6163 0001154  94.7442 265.3682 15.08838743 63956,6917.884,95.438,540.548,538.951,0.0
51768.0,STARLINK-3622,PAYLOAD,2023-04-15 05:50:27,15.08848618,0.0001407,53.217,55.1555,80.5445,279.5706,0.00017521,2.502e-05,0.0,0 STARLINK-3622,1 51768U 22017A   23105.24337851  .00002502  00000-0  17521-3 0  9991,2 51768  53.2170  55.1555 0001407  80.5445 279.5706 15.08848618 64107,6917.854,95.437,540.692,538.746,0.0
51768.0,STARLINK-3622,PAYLOAD,2023-04-16 05:41:14,15.08850872,0.0001287,53.217,50.6924,103.7637,256.3499,0.00015714,2.215e-05,0.0,0 STARLINK-3622,1 51768U 22017A   23106.23697568  .00002215  00000-0  15714-3 0  9998,2 51768  53.2170  50.6924 0001287 103.7637 256.3499 15.08850872 64268,6917.847,95.437,540.602,538.822,0.0
51768.0,STARLINK-3622,PAYLOAD,2023-04-17 02:21:16,15.0883979,0.0001477,53.2179,46.8261,104.4042,255.7114,-4.6307e-05,-1.025e-05,0.0,0 STARLINK-3622,1 51768U 22017A   23107.09810331 -.00001025  00000-0 -46307-4 0  9991,2 51768  53.2179  46.8261 0001477 104.4042 255.7114 15.08839790 64394,6917.881,95.438,540.768,538.724,0.0
51768.0,STARLINK-3622,PAYLOAD,2023-04-17 05:32:02,15.08842018,0.0001469,53.218,46.2319,100.4458,259.67,1.7794e-05,-5e-08,0.0,0 STARLINK-3622,1 51768U 22017A   23107.23058298 -.00000005  00000-0  17794-4 0  9997,2 51768  53.2180  46.2319 0001469 100.4458 259.6700 15.08842018 64405,6917.874,95.437,540.755,538.723,0.0
51768.0,STARLINK-3622,PAYLOAD,2023-04-18 05:22:49,15.08850972,0.0001297,53.2183,41.7718,102.9937,257.12,0.0001884,2.713e-05,0.0,0 STARLINK-3622,1 51768U 22017A   23108.22417944  .00002713  00000-0  18840-3 0  9993,2 51768  53.2183  41.7718 0001297 102.9937 257.1200 15.08850972 64551,6917.847,95.437,540.609,538.815,0.0
51768.0,STARLINK-3622,PAYLOAD,2023-04-18 19:41:18,15.08840669,0.0001731,53.2179,39.0949,96.1576,263.9614,0.00013594,1.876e-05,0.0,0 STARLINK-3622,1 51768U 22017A   23108.82034860  .00001876  00000-0  13594-3 0  9991,2 51768  53.2179  39.0949 0001731  96.1576 263.9614 15.08840669 64644,6917.878,95.438,540.941,538.546,0.0
